{
    "links": {
        "self": "http://www.neowsapp.com/rest/v1/neo/3511916?api_key=iIulBulltgU6a56xZRHN4H3l9WmuAYTsLGpBGhQ2"
    },
    "id": "3511916",
    "neo_reference_id": "3511916",
    "name": "(2010 FD)",
    "designation": "2010 FD",
    "nasa_jpl_url": "http://ssd.jpl.nasa.gov/sbdb.cgi?sstr=3511916",
    "absolute_magnitude_h": 26.1,
    "estimated_diameter": {
        "kilometers": {
            "estimated_diameter_min": 0.0160160338,
            "estimated_diameter_max": 0.0358129403
        },
        "meters": {
            "estimated_diameter_min": 16.0160337979,
            "estimated_diameter_max": 35.8129403019
        },
        "miles": {
            "estimated_diameter_min": 0.0099518989,
            "estimated_diameter_max": 0.0222531225
        },
        "feet": {
            "estimated_diameter_min": 52.5460443254,
            "estimated_diameter_max": 117.4965270602
        }
    },
    "is_potentially_hazardous_asteroid": false,
    "close_approach_data": [
        {
            "close_approach_date": "2010-03-22",
            "close_approach_date_full": "2010-Mar-22 19:40",
            "epoch_date_close_approach": 1269286800000,
            "relative_velocity": {
                "kilometers_per_second": "7.3298875094",
                "kilometers_per_hour": "26387.5950338048",
                "miles_per_hour": "16396.225369755"
            },
            "miss_distance": {
                "astronomical": "0.0592145429",
                "lunar": "23.0344571881",
                "kilometers": "8858369.490863623",
                "miles": "5504335.5621910774"
            },
            "orbiting_body": "Earth"
        },
        {
            "close_approach_date": "2023-01-17",
            "close_approach_date_full": "2023-Jan-17 08:04",
            "epoch_date_close_approach": 1673942640000,
            "relative_velocity": {
                "kilometers_per_second": "7.0037322101",
                "kilometers_per_hour": "25213.4359564069",
                "miles_per_hour": "15666.6485808019"
            },
            "miss_distance": {
                "astronomical": "0.6609345012",
                "lunar": "257.1035209668",
                "kilometers": "98874393.589032444",
                "miles": "61437699.2722539672"
            },
            "orbiting_body": "Juptr"
        },
        {
            "close_approach_date": "2046-09-25",
            "close_approach_date_full": "2046-Sep-25 18:14",
            "epoch_date_close_approach": 2421512040000,
            "relative_velocity": {
                "kilometers_per_second": "8.9227767842",
                "kilometers_per_hour": "32121.9964230785",
                "miles_per_hour": "19959.3593885512"
            },
            "miss_distance": {
                "astronomical": "1.2008521919",
                "lunar": "467.1315026491",
                "kilometers": "179644930.093071253",
                "miles": "111626183.3849311714"
            },
            "orbiting_body": "Juptr"
        },
        {
            "close_approach_date": "2085-01-24",
            "close_approach_date_full": "2085-Jan-24 04:29",
            "epoch_date_close_approach": 3631148940000,
            "relative_velocity": {
                "kilometers_per_second": "24.6847582969",
                "kilometers_per_hour": "88865.1298689876",
                "miles_per_hour": "55217.3358344273"
            },
            "miss_distance": {
                "astronomical": "0.4783699302",
                "lunar": "186.0859028478",
                "kilometers": "71563122.629968674",
                "miles": "44467262.4279047412"
            },
            "orbiting_body": "Earth"
        }
    ],
    "orbital_data": {
        "orbit_id": "14",
        "orbit_determination_date": "2019-09-04 06:12:41",
        "first_observation_date": "2010-03-16",
        "last_observation_date": "2010-04-15",
        "data_arc_in_days": 30,
        "observations_used": 44,
        "orbit_uncertainty": "7",
        "minimum_orbit_intersection": ".0613025",
        "jupiter_tisserand_invariant": "2.962",
        "epoch_osculation": "2459000.5",
        "eccentricity": ".6316439218890562",
        "semi_major_axis": "2.875733013766987",
        "inclination": ".3451897178653373",
        "ascending_node_longitude": "22.41649582493497",
        "orbital_period": "1781.235211442303",
        "perihelion_distance": "1.059293734645372",
        "perihelion_argument": "162.6666478965448",
        "aphelion_distance": "4.692172292888602",
        "perihelion_time": "2458838.337846169456",
        "mean_anomaly": "32.77409687613664",
        "mean_motion": ".2021069411200897",
        "equinox": "J2000",
        "orbit_class": {
            "orbit_class_type": "AMO",
            "orbit_class_description": "Near-Earth asteroid orbits similar to that of 1221 Amor",
            "orbit_class_range": "1.017 AU < q (perihelion) < 1.3 AU"
        }
    },
    "is_sentry_object": false
}